KUIPER-00079            
1 64826U 25151L   25228.91670139 -.00023687  00000+0 -83050-3 0  9991
2 64826  51.8798 135.1439 0004641 260.8238 132.3397 15.28547417  4394
KUIPER-00080            
1 64827U 25151M   25228.91670139 -.00020922  00000+0 -69413-3 0  9998
2 64827  51.8793 135.1912 0002832 284.9651 108.4396 15.30260910  5007
KUIPER-00082            
1 64828U 25151N   25228.76200318  .00027737  00000+0  78346-3 0  9994
2 64828  51.8780 135.7024 0004875 250.2448 109.8013 15.36140550  4837
KUIPER-00083            
1 64829U 25151P   25228.76989800  .00022683  00000+0  65051-3 0  9999
2 64829  51.8772 135.7529 0005076 255.6488 104.3934 15.35781085  6024
KUIPER-00084            
1 64830U 25151Q   25228.91670139 -.00020286  00000+0 -10062-2 0  9990
2 64830  51.8882 136.3368 0006890 245.8412 267.2917 15.16782253  4585
KUIPER-00085            
1 64831U 25151R   25228.75942917  .00023633  00000+0  66634-3 0  9993
2 64831  51.8781 135.6894 0005873 247.5337 112.5027 15.36283847  4834
KUIPER-00086            
1 64832U 25151S   25228.91670139 -.00015685  00000+0 -45570-3 0  9992
2 64832  51.8775 135.0879 0005859 265.8564 163.8487 15.34230668  4430
KUIPER-00087            
1 64833U 25151T   25228.76414126  .00038970  00000+0  10988-2 0  9992
2 64833  51.8774 135.7220 0004826 241.2258 118.8243 15.36025214  4833
